0 CARTOSAT 2B
1 36795U 10035A   13282.51406551  .00000418  00000-0  63786-4 0  6323
2 36795 097.8468 340.1942 0017139 065.7653 294.5349 14.78716647175178
0 CARTOSAT 2B
1 36795U 10035A   13282.85240216  .00000414  00000-0  63237-4 0  6332
2 36795 097.8467 340.5240 0017135 064.7501 295.5474 14.78716912175220
0 CARTOSAT 2B
1 36795U 10035A   13283.19073924  .00000414  00000-0  63253-4 0  6349
2 36795 097.8466 340.8537 0017125 063.5991 296.6995 14.78717282175276
0 CARTOSAT 2B
1 36795U 10035A   13283.32607353  .00000417  00000-0  63644-4 0  6351
2 36795 097.8466 340.9857 0017120 063.1584 297.1382 14.78717458175294
0 CARTOSAT 2B
1 36795U 10035A   13283.59674253  .00000439  00000-0  66635-4 0  6350
2 36795 097.8466 341.2497 0017128 062.5707 297.7264 14.78717979175334
0 CARTOSAT 2B
1 36795U 10035A   13283.79974404  .00000446  00000-0  67595-4 0  6368
2 36795 097.8467 341.4477 0017115 062.0361 298.2580 14.78718206175366
0 CARTOSAT 2B
1 36795U 10035A   13284.13808021  .00000460  00000-0  69440-4 0  6376
2 36795 097.8465 341.7775 0017058 060.9972 299.2969 14.78718774175417
0 CARTOSAT 2B
1 36795U 10035A   13284.47641593  .00000470  00000-0  70834-4 0  6383
2 36795 097.8464 342.1075 0017060 059.9595 300.3311 14.78719241175466
0 CARTOSAT 2B
1 36795U 10035A   13285.49142315  .00000505  00000-0  75551-4 0  6418
2 36795 097.8464 343.0972 0017027 056.8979 303.3871 14.78720746175610
0 CARTOSAT 2B
1 36795U 10035A   13285.82975861  .00000530  00000-0  79004-4 0  6421
2 36795 097.8464 343.4272 0017023 055.7978 304.4841 14.78721311175663
0 CARTOSAT 2B
1 36795U 10035A   13286.16809423  .00000537  00000-0  79920-4 0  6434
2 36795 097.8463 343.7570 0017011 054.7404 305.5406 14.78721802175716
0 CARTOSAT 2B
1 36795U 10035A   13286.50642946  .00000541  00000-0  80513-4 0  6443
2 36795 097.8462 344.0870 0016997 053.7590 306.5193 14.78722258175764
0 CARTOSAT 2B
1 36795U 10035A   13286.84476470  .00000559  00000-0  82927-4 0  6458
2 36795 097.8462 344.4169 0017003 052.6695 307.6057 14.78722762175819
0 CARTOSAT 2B
1 36795U 10035A   13287.18310011  .00000570  00000-0  84455-4 0  6466
2 36795 097.8461 344.7467 0016971 051.6234 308.6518 14.78723311175862
0 CARTOSAT 2B
1 36795U 10035A   13287.45376777  .00000577  00000-0  85416-4 0  6473
2 36795 097.8461 345.0107 0016974 050.7651 309.5064 14.78723714175901
0 CARTOSAT 2B
1 36795U 10035A   13287.79210269  .00000599  00000-0  88401-4 0  6485
2 36795 097.8461 345.3407 0016978 049.7784 310.4915 14.78724328175959
0 CARTOSAT 2B
1 36795U 10035A   13288.19810446  .00000618  00000-0  90932-4 0  6498
2 36795 097.8460 345.7365 0016915 048.5620 311.7065 14.78725047176019
0 CARTOSAT 2B
1 36795U 10035A   13288.46877168  .00000633  00000-0  92959-4 0  6502
2 36795 097.8460 346.0005 0016915 047.7686 312.4964 14.78725568176055
0 CARTOSAT 2B
1 36795U 10035A   13288.80710608  .00000646  00000-0  94747-4 0  6517
2 36795 097.8459 346.3304 0016913 046.7785 313.4838 14.78726134176102
0 CARTOSAT 2B
1 36795U 10035A   13289.14544043  .00000651  00000-0  95441-4 0  6522
2 36795 097.8459 346.6602 0016894 045.7877 314.4727 14.78726676176159
0 CARTOSAT 2B
1 36795U 10035A   13289.48377451  .00000657  00000-0  96266-4 0  6539
2 36795 097.8459 346.9901 0016899 044.8216 315.4364 14.78727250176209
0 CARTOSAT 2B
1 36795U 10035A   13289.82210842  .00000658  00000-0  96456-4 0  6540
2 36795 097.8459 347.3201 0016872 043.8361 316.4174 14.78727678176257
0 CARTOSAT 2B
1 36795U 10035A   13290.16044280  .00000649  00000-0  95178-4 0  6551
2 36795 097.8459 347.6500 0016858 042.8823 317.3704 14.78728092176304
0 CARTOSAT 2B
1 36795U 10035A   13290.36344309  .00000642  00000-0  94220-4 0  6569
2 36795 097.8458 347.8478 0016847 042.2604 317.9903 14.78728336176339
0 CARTOSAT 2B
1 36795U 10035A   13290.63411015  .00000646  00000-0  94774-4 0  6577
2 36795 097.8460 348.1120 0016837 041.4966 318.7527 14.78728775176373
0 CARTOSAT 2B
1 36795U 10035A   13290.83711031  .00000647  00000-0  94873-4 0  6582
2 36795 097.8461 348.3100 0016819 040.9554 319.2917 14.78729045176405
0 CARTOSAT 2B
1 36795U 10035A   13291.17544406  .00000650  00000-0  95377-4 0  6595
2 36795 097.8461 348.6399 0016811 039.9063 320.3396 14.78729609176458
0 CARTOSAT 2B
1 36795U 10035A   13291.51377733  .00000647  00000-0  94910-4 0  6600
2 36795 097.8461 348.9698 0016808 038.8454 321.3961 14.78730062176501
0 CARTOSAT 2B
1 36795U 10035A   13291.85211072  .00000665  00000-0  97378-4 0  6612
2 36795 097.8461 349.2998 0016775 037.6955 322.5431 14.78730665176553
0 CARTOSAT 2B
1 36795U 10035A   13292.19044398  .00000682  00000-0  99712-4 0  6629
2 36795 097.8462 349.6298 0016764 036.6507 323.5866 14.78731346176607
0 CARTOSAT 2B
1 36795U 10035A   13292.46111004  .00000697  00000-0  10169-3 0  6633
2 36795 097.8460 349.8936 0016746 035.7202 324.5133 14.78731895176649
0 CARTOSAT 2B
1 36795U 10035A   13292.79944278  .00000714  00000-0  10399-3 0  6642
2 36795 097.8461 350.2236 0016747 034.7209 325.5092 14.78732552176697
0 CARTOSAT 2B
1 36795U 10035A   13293.13777548  .00000739  00000-0  10738-3 0  6650
2 36795 097.8459 350.5537 0016703 033.6264 326.6027 14.78733370176747
0 CARTOSAT 2B
1 36795U 10035A   13293.47610753  .00000755  00000-0  10962-3 0  6669
2 36795 097.8458 350.8836 0016687 032.5951 327.6293 14.78734079176791
0 CARTOSAT 2B
1 36795U 10035A   13293.81443982  .00000767  00000-0  11120-3 0  6676
2 36795 097.8459 351.2135 0016683 031.7323 328.4874 14.78734644176847
0 CARTOSAT 2B
1 36795U 10035A   13294.15277264  .00000758  00000-0  10999-3 0  6686
2 36795 097.8458 351.5434 0016641 030.6603 329.5589 14.78735140176896
0 CARTOSAT 2B
1 36795U 10035A   13294.49110464  .00000758  00000-0  10993-3 0  6696
2 36795 097.8458 351.8733 0016630 029.6047 330.6105 14.78735701176945
0 CARTOSAT 2B
1 36795U 10035A   13294.82943670  .00000754  00000-0  10948-3 0  6704
2 36795 097.8457 352.2031 0016605 028.5596 331.6514 14.78736180176991
0 CARTOSAT 2B
1 36795U 10035A   13295.16776910  .00000740  00000-0  10759-3 0  6719
2 36795 097.8456 352.5330 0016581 027.5626 332.6469 14.78736600177045
0 CARTOSAT 2B
1 36795U 10035A   13295.50610110  .00000719  00000-0  10471-3 0  6724
2 36795 097.8455 352.8628 0016547 026.5993 333.6066 14.78736932177092
0 CARTOSAT 2B
1 36795U 10035A   13295.84443297  .00000707  00000-0  10311-3 0  6732
2 36795 097.8456 353.1927 0016538 025.7169 334.4839 14.78737246177147
0 CARTOSAT 2B
1 36795U 10035A   13296.18276516  .00000699  00000-0  10193-3 0  6747
2 36795 097.8454 353.5226 0016497 024.6064 335.5943 14.78737735177193
